[
    {
        "OBJECT_NAME": "NAVSTAR 46 (USA 145)",
        "OBJECT_ID": "1999-055A",
        "EPOCH": "2026-07-10T07:28:13.904256",
        "MEAN_MOTION": 2.00560976,
        "ECCENTRICITY": 0.01064655,
        "INCLINATION": 51.4414,
        "RA_OF_ASC_NODE": 294.4566,
        "ARG_OF_PERICENTER": 176.834,
        "MEAN_ANOMALY": 242.0656,
        "EPHEMERIS_TYPE": 0,
        "CLASSIFICATION_TYPE": "U",
        "NORAD_CAT_ID": 25933,
        "ELEMENT_SET_NO": 999,
        "REV_AT_EPOCH": 19604,
        "BSTAR": 0,
        "MEAN_MOTION_DOT": -5.4e-07,
        "MEAN_MOTION_DDOT": 0
    },
    {
        "OBJECT_NAME": "NAVSTAR 48 (USA 151)",
        "OBJECT_ID": "2000-040A",
        "EPOCH": "2026-07-10T06:17:08.802816",
        "MEAN_MOTION": 2.00557788,
        "ECCENTRICITY": 0.01205976,
        "INCLINATION": 54.8491,
        "RA_OF_ASC_NODE": 214.2457,
        "ARG_OF_PERICENTER": 302.6821,
        "MEAN_ANOMALY": 81.8231,
        "EPHEMERIS_TYPE": 0,
        "CLASSIFICATION_TYPE": "U",
        "NORAD_CAT_ID": 26407,
        "ELEMENT_SET_NO": 999,
        "REV_AT_EPOCH": 19041,
        "BSTAR": 0,
        "MEAN_MOTION_DOT": 1.1e-06,
        "MEAN_MOTION_DDOT": 0
    },
    {
        "OBJECT_NAME": "NAVSTAR 49 (USA 154)",
        "OBJECT_ID": "2000-071A",
        "EPOCH": "2026-07-09T14:34:05.577600",
        "MEAN_MOTION": 2.00564381,
        "ECCENTRICITY": 0.01741603,
        "INCLINATION": 55.6376,
        "RA_OF_ASC_NODE": 94.0687,
        "ARG_OF_PERICENTER": 266.8793,
        "MEAN_ANOMALY": 290.0044,
        "EPHEMERIS_TYPE": 0,
        "CLASSIFICATION_TYPE": "U",
        "NORAD_CAT_ID": 26605,
        "ELEMENT_SET_NO": 999,
        "REV_AT_EPOCH": 18796,
        "BSTAR": 0,
        "MEAN_MOTION_DOT": -3e-07,
        "MEAN_MOTION_DDOT": 0
    },
    {
        "OBJECT_NAME": "NAVSTAR 51 (USA 166)",
        "OBJECT_ID": "2003-005A",
        "EPOCH": "2026-07-10T03:42:00.163584",
        "MEAN_MOTION": 2.00559273,
        "ECCENTRICITY": 0.01481924,
        "INCLINATION": 54.8796,
        "RA_OF_ASC_NODE": 214.0562,
        "ARG_OF_PERICENTER": 53.1533,
        "MEAN_ANOMALY": 29.7363,
        "EPHEMERIS_TYPE": 0,
        "CLASSIFICATION_TYPE": "U",
        "NORAD_CAT_ID": 27663,
        "ELEMENT_SET_NO": 999,
        "REV_AT_EPOCH": 17177,
        "BSTAR": 0,
        "MEAN_MOTION_DOT": 1.1e-06,
        "MEAN_MOTION_DDOT": 0
    },
    {
        "OBJECT_NAME": "NAVSTAR 52 (USA 168)",
        "OBJECT_ID": "2003-010A",
        "EPOCH": "2026-07-10T06:22:32.123712",
        "MEAN_MOTION": 1.91454746,
        "ECCENTRICITY": 0.00045444,
        "INCLINATION": 54.7982,
        "RA_OF_ASC_NODE": 324.318,
        "ARG_OF_PERICENTER": 249.0585,
        "MEAN_ANOMALY": 140.9414,
        "EPHEMERIS_TYPE": 0,
        "CLASSIFICATION_TYPE": "U",
        "NORAD_CAT_ID": 27704,
        "ELEMENT_SET_NO": 999,
        "REV_AT_EPOCH": 17037,
        "BSTAR": 0,
        "MEAN_MOTION_DOT": -8.5e-07,
        "MEAN_MOTION_DDOT": 0
    },
    {
        "OBJECT_NAME": "NAVSTAR 53 (USA 175)",
        "OBJECT_ID": "2003-058A",
        "EPOCH": "2026-07-09T21:12:35.230176",
        "MEAN_MOTION": 1.92678357,
        "ECCENTRICITY": 0.00011698,
        "INCLINATION": 55.0405,
        "RA_OF_ASC_NODE": 22.4277,
        "ARG_OF_PERICENTER": 340.9086,
        "MEAN_ANOMALY": 19.132,
        "EPHEMERIS_TYPE": 0,
        "CLASSIFICATION_TYPE": "U",
        "NORAD_CAT_ID": 28129,
        "ELEMENT_SET_NO": 999,
        "REV_AT_EPOCH": 16490,
        "BSTAR": 0,
        "MEAN_MOTION_DOT": -6e-07,
        "MEAN_MOTION_DDOT": 0
    },
    {
        "OBJECT_NAME": "NAVSTAR 54 (USA 177)",
        "OBJECT_ID": "2004-009A",
        "EPOCH": "2026-07-10T07:08:01.624128",
        "MEAN_MOTION": 2.00553861,
        "ECCENTRICITY": 0.01170199,
        "INCLINATION": 54.8105,
        "RA_OF_ASC_NODE": 274.7528,
        "ARG_OF_PERICENTER": 174.1119,
        "MEAN_ANOMALY": 164.7266,
        "EPHEMERIS_TYPE": 0,
        "CLASSIFICATION_TYPE": "U",
        "NORAD_CAT_ID": 28190,
        "ELEMENT_SET_NO": 999,
        "REV_AT_EPOCH": 16340,
        "BSTAR": 0,
        "MEAN_MOTION_DOT": -1.2e-07,
        "MEAN_MOTION_DDOT": 0
    },
    {
        "OBJECT_NAME": "NAVSTAR 55 (USA 178)",
        "OBJECT_ID": "2004-023A",
        "EPOCH": "2026-07-09T07:52:35.763744",
        "MEAN_MOTION": 2.00557902,
        "ECCENTRICITY": 0.01595443,
        "INCLINATION": 54.8786,
        "RA_OF_ASC_NODE": 85.817,
        "ARG_OF_PERICENTER": 302.6097,
        "MEAN_ANOMALY": 237.1383,
        "EPHEMERIS_TYPE": 0,
        "CLASSIFICATION_TYPE": "U",
        "NORAD_CAT_ID": 28361,
        "ELEMENT_SET_NO": 999,
        "REV_AT_EPOCH": 16148,
        "BSTAR": 0,
        "MEAN_MOTION_DOT": -3.5e-07,
        "MEAN_MOTION_DDOT": 0
    },
    {
        "OBJECT_NAME": "NAVSTAR 56 (USA 180)",
        "OBJECT_ID": "2004-045A",
        "EPOCH": "2026-07-10T06:23:58.439040",
        "MEAN_MOTION": 2.00556809,
        "ECCENTRICITY": 0.01700954,
        "INCLINATION": 55.1214,
        "RA_OF_ASC_NODE": 323.967,
        "ARG_OF_PERICENTER": 316.9414,
        "MEAN_ANOMALY": 64.8542,
        "EPHEMERIS_TYPE": 0,
        "CLASSIFICATION_TYPE": "U",
        "NORAD_CAT_ID": 28474,
        "ELEMENT_SET_NO": 999,
        "REV_AT_EPOCH": 15889,
        "BSTAR": 0,
        "MEAN_MOTION_DOT": -8e-07,
        "MEAN_MOTION_DDOT": 0
    },
    {
        "OBJECT_NAME": "NAVSTAR 57 (USA 183)",
        "OBJECT_ID": "2005-038A",
        "EPOCH": "2026-07-10T07:05:53.898144",
        "MEAN_MOTION": 2.00564004,
        "ECCENTRICITY": 0.01281687,
        "INCLINATION": 54.8594,
        "RA_OF_ASC_NODE": 272.2441,
        "ARG_OF_PERICENTER": 296.3525,
        "MEAN_ANOMALY": 70.9409,
        "EPHEMERIS_TYPE": 0,
        "CLASSIFICATION_TYPE": "U",
        "NORAD_CAT_ID": 28874,
        "ELEMENT_SET_NO": 999,
        "REV_AT_EPOCH": 15230,
        "BSTAR": 0,
        "MEAN_MOTION_DOT": -6e-08,
        "MEAN_MOTION_DDOT": 0
    },
    {
        "OBJECT_NAME": "NAVSTAR 58 (USA 190)",
        "OBJECT_ID": "2006-042A",
        "EPOCH": "2026-07-09T02:49:39.464832",
        "MEAN_MOTION": 2.00568543,
        "ECCENTRICITY": 0.01070153,
        "INCLINATION": 54.7126,
        "RA_OF_ASC_NODE": 150.4682,
        "ARG_OF_PERICENTER": 54.978,
        "MEAN_ANOMALY": 80.6146,
        "EPHEMERIS_TYPE": 0,
        "CLASSIFICATION_TYPE": "U",
        "NORAD_CAT_ID": 29486,
        "ELEMENT_SET_NO": 999,
        "REV_AT_EPOCH": 14483,
        "BSTAR": 0,
        "MEAN_MOTION_DOT": 6.6e-07,
        "MEAN_MOTION_DDOT": 0
    }
]
